[{"OBJECT_NAME":"STARLINK-35057","OBJECT_ID":"2025-200F","EPOCH":"2026-03-09T22:33:38.756160","MEAN_MOTION":15.05642749,"ECCENTRICITY":0.00012721,"INCLINATION":97.6047,"RA_OF_ASC_NODE":139.9693,"ARG_OF_PERICENTER":96.9565,"MEAN_ANOMALY":263.1806,"EPHEMERIS_TYPE":0,"CLASSIFICATION_TYPE":"U","NORAD_CAT_ID":65525,"ELEMENT_SET_NO":999,"REV_AT_EPOCH":2916,"BSTAR":0.00012213276,"MEAN_MOTION_DOT":1.702e-5,"MEAN_MOTION_DDOT":0},{"OBJECT_NAME":"KUIPER-00232","OBJECT_ID":"2025-301R","EPOCH":"2026-03-09T22:00:01.999584","MEAN_MOTION":15.06812029,"ECCENTRICITY":0.0002965,"INCLINATION":51.8873,"RA_OF_ASC_NODE":65.5535,"ARG_OF_PERICENTER":139.5556,"MEAN_ANOMALY":115.4886,"EPHEMERIS_TYPE":0,"CLASSIFICATION_TYPE":"U","NORAD_CAT_ID":67148,"ELEMENT_SET_NO":999,"REV_AT_EPOCH":493,"BSTAR":-0.072865786,"MEAN_MOTION_DOT":-0.01020247,"MEAN_MOTION_DDOT":0}]
